INTELSAT 25 (IS-25)     
1 33153U 08034A   26113.08239256 -.00000278  00000+0  00000+0 0  9994
2 33153   2.5670  80.9425 0002165 274.6153 207.9060  0.99965107 65143
GALAXY 19 (G-19)        
1 33376U 08045A   26115.90436615 -.00000153  00000+0  00000+0 0  9996
2 33376   0.0157 249.3143 0003262 160.5976  32.5645  1.00271959 64379
FM-5                    
1 35493U 09034A   26115.86780985 -.00000214  00000+0  00000+0 0  9992
2 35493   0.0135 264.8841 0000671  28.0187 147.2350  1.00270622 46112
INTELSAT 14 (IS-14)     
1 36097U 09064A   26115.91467951 -.00000287  00000+0  00000+0 0  9997
2 36097   0.0104  63.2911 0002488 331.3332 103.5822  1.00272425 60082
INTELSAT 15 (IS-15)     
1 36106U 09067A   26115.94041962 -.00000199  00000+0  00000+0 0  9996
2 36106   0.0293  92.3225 0002234 301.7107 243.6214  1.00271873 40707
DIRECTV 12              
1 36131U 09075A   26115.90323947 -.00000117  00000+0  00000+0 0  9995
2 36131   0.0414  77.7171 0000196 309.0804  49.5525  1.00271850 46021
INTELSAT 16 (IS-16)     
1 36397U 10006A   26115.86780985 -.00000258  00000+0  00000+0 0  9995
2 36397   0.0073 128.9114 0002053 289.3660  31.8187  1.00271650 59127
XM-5                    
1 37185U 10053A   26115.16572596 -.00000038  00000+0  00000+0 0  9999
2 37185   0.0622 271.1719 0003555 277.0771 329.4028  1.00271890 56954
INTELSAT 17 (IS-17)     
1 37238U 10065B   26115.92623270 -.00000015  00000+0  00000+0 0  9996
2 37238   0.0140 186.0531 0002789 225.2729 202.0547  1.00271349 52722
INTELSAT 28 (IS-28)     
1 37392U 11016A   26115.91736619 -.00000237  00000+0  00000+0 0  9991
2 37392   1.6729  83.2207 0004138 315.5178 113.7310  1.00270960 52760
INTELSAT 18 (IS-18)     
1 37834U 11056A   26115.79905738  .00000000  00000+0  00000+0 0  9999
2 37834   0.0186 241.5106 0001913 150.6451 289.3189  1.00271707 53280
INTELSAT 22 (IS-22)     
1 38098U 12011A   26115.94676556 -.00000072  00000+0  00000+0 0  9994
2 38098   0.0198 113.1758 0001765 286.0445 227.6724  1.00270632  6661
INTELSAT 19 (IS-19)     
1 38356U 12030A   26115.87683597 -.00000070  00000+0  00000+0 0  9995
2 38356   0.0370  80.7389 0002896 313.7431 301.0709  1.00272058 49928
INTELSAT 20 (IS-20)     
1 38740U 12043A   26115.92895189 -.00000037  00000+0  00000+0 0  9997
2 38740   0.0167 164.4319 0002176   9.2299  83.1973  1.00269064 50221
INTELSAT 21 (IS-21)     
1 38749U 12045A   26115.87336475 -.00000298  00000+0  00000+0 0  9999
2 38749   0.0563  77.9509 0002016 327.1216  65.2188  1.00271236 50002
INTELSAT 23 (IS-23)     
1 38867U 12057A   26115.91311951 -.00000298  00000+0  00000+0 0  9990
2 38867   0.0170 265.8697 0000103 180.6944  43.0473  1.00267824 49432
FM-6                    
1 39360U 13058A   26115.90055279 -.00000030  00000+0  00000+0 0  9992
2 39360   0.0100 250.8263 0000285  54.1486 116.7836  1.00275189 45546
